[{"OBJECT_NAME":"STARLINK-35750","OBJECT_ID":"2025-244D","EPOCH":"2026-03-09T18:10:47.607744","MEAN_MOTION":15.30194327,"ECCENTRICITY":0.00010834,"INCLINATION":53.1591,"RA_OF_ASC_NODE":229.3372,"ARG_OF_PERICENTER":80.4062,"MEAN_ANOMALY":279.7061,"EPHEMERIS_TYPE":0,"CLASSIFICATION_TYPE":"U","NORAD_CAT_ID":66209,"ELEMENT_SET_NO":999,"REV_AT_EPOCH":2167,"BSTAR":0.00095626258,"MEAN_MOTION_DOT":0.00028065,"MEAN_MOTION_DDOT":0},{"OBJECT_NAME":"COSMOS 2251 DEB","OBJECT_ID":"1993-036N","EPOCH":"2026-03-09T20:39:34.848000","MEAN_MOTION":15.17003756,"ECCENTRICITY":0.00564486,"INCLINATION":74.0035,"RA_OF_ASC_NODE":352.1163,"ARG_OF_PERICENTER":60.1769,"MEAN_ANOMALY":300.5022,"EPHEMERIS_TYPE":0,"CLASSIFICATION_TYPE":"U","NORAD_CAT_ID":33765,"ELEMENT_SET_NO":999,"REV_AT_EPOCH":90936,"BSTAR":0.0026022202,"MEAN_MOTION_DOT":0.00053945,"MEAN_MOTION_DDOT":0}]
